[{"OBJECT_NAME":"DAMPE","OBJECT_ID":"2015-078A","EPOCH":"2026-03-09T23:55:00.527232","MEAN_MOTION":15.30502084,"ECCENTRICITY":0.00138005,"INCLINATION":97.4588,"RA_OF_ASC_NODE":73.9866,"ARG_OF_PERICENTER":70.6942,"MEAN_ANOMALY":289.579,"EPHEMERIS_TYPE":0,"CLASSIFICATION_TYPE":"U","NORAD_CAT_ID":41173,"ELEMENT_SET_NO":999,"REV_AT_EPOCH":56937,"BSTAR":9.1158173e-5,"MEAN_MOTION_DOT":2.617e-5,"MEAN_MOTION_DDOT":0},{"OBJECT_NAME":"STARLINK-35508","OBJECT_ID":"2025-225C","EPOCH":"2026-03-09T13:06:28.758816","MEAN_MOTION":15.30186433,"ECCENTRICITY":0.00010907,"INCLINATION":53.1584,"RA_OF_ASC_NODE":166.5253,"ARG_OF_PERICENTER":112.1029,"MEAN_ANOMALY":248.0088,"EPHEMERIS_TYPE":0,"CLASSIFICATION_TYPE":"U","NORAD_CAT_ID":65912,"ELEMENT_SET_NO":999,"REV_AT_EPOCH":2438,"BSTAR":0.00082748794,"MEAN_MOTION_DOT":0.00024218,"MEAN_MOTION_DDOT":0}]
